STARLINK-36688          
1 67656U 26022J   26038.16668981 -.01326322  57862-3 -20916-2 0  9998
2 67656  97.2824  70.4462 0000974  65.1277 216.2382 16.03969354  1983
STARLINK-36706          
1 67657U 26022K   26038.16668981 -.01321192  57547-3 -20657-2 0  9991
2 67657  97.2823  70.4464 0000982  66.5969 215.9445 16.04113333  1959
STARLINK-36701          
1 67658U 26022L   26038.16668981 -.01323589  57852-3 -20495-2 0  9993
2 67658  97.2824  70.4474 0000995  71.6531 212.1491 16.04276212  1987
STARLINK-36642          
1 67659U 26022M   26038.16668981 -.01314887  57224-3 -20226-2 0  9990
2 67659  97.2825  70.4480 0000975  67.4615 217.3542 16.04384986  1982
STARLINK-36673          
1 67660U 26022N   26038.16668981 -.01301304  56237-3 -19833-2 0  9997
2 67660  97.2821  70.4481 0000968  67.3862 218.6804 16.04537457  1984
STARLINK-36674          
1 67661U 26022P   26038.16668981 -.01307723  56833-3 -19791-2 0  9994
2 67661  97.2822  70.4486 0000980  68.9583 218.1209 16.04656144  1981
STARLINK-36700          
1 67662U 26022Q   26038.16668981 -.01300377  56444-3 -19330-2 0  9990
2 67662  97.2821  70.4495 0000929  69.0868 220.3819 16.04953207  1984
STARLINK-36675          
1 67663U 26022R   26038.16668981 -.01311017  57204-3 -19659-2 0  9993
2 67663  97.2820  70.4491 0000983  67.4683 220.8147 16.04809860  1981
STARLINK-36404          
1 67664U 26022S   26038.16668981 -.01290134  55720-3 -19011-2 0  9993
2 67664  97.2817  70.4496 0000939  68.9885 221.6844 16.05096268  1955
STARLINK-36399          
1 67665U 26022T   26038.16668981 -.01285066  55386-3 -18816-2 0  9992
2 67665  97.2817  70.4503 0000964  65.9401 225.6972 16.05201016  1959
STARLINK-36365          
1 67666U 26022U   26038.16668981 -.01268525  54179-3 -18390-2 0  9990
2 67666  97.2818  70.4511 0000995  65.4687 227.4441 16.05362468  1988
STARLINK-36622          
1 67667U 26022V   26038.16668981 -.01262497  53818-3 -18108-2 0  9999
2 67667  97.2818  70.4516 0000879  66.0622 228.1679 16.05538311  1984
