CCSDS_OMM_VERS = 2.0
CREATION_DATE  = 
ORIGINATOR     = 

OBJECT_NAME    = STARLINK-36688
OBJECT_ID      = 2026-022J
CENTER_NAME    = EARTH
REF_FRAME      = TEME
TIME_SYSTEM    = UTC
MEAN_ELEMENT_THEORY = SGP/SGP4

EPOCH          = 2026-02-07T04:00:01.999584
MEAN_MOTION    = 16.03969354
ECCENTRICITY   = .0000974
INCLINATION    = 97.2824
RA_OF_ASC_NODE = 70.4462
ARG_OF_PERICENTER = 65.1277
MEAN_ANOMALY   = 216.2382

EPHEMERIS_TYPE = 0
CLASSIFICATION_TYPE = U
NORAD_CAT_ID   = 67656
ELEMENT_SET_NO = 999
REV_AT_EPOCH   = 198
BSTAR          = -.20916E-2
MEAN_MOTION_DOT = -.1326322E-1
MEAN_MOTION_DDOT = .57862E-3

CCSDS_OMM_VERS = 2.0
CREATION_DATE  = 
ORIGINATOR     = 

OBJECT_NAME    = STARLINK-36706
OBJECT_ID      = 2026-022K
CENTER_NAME    = EARTH
REF_FRAME      = TEME
TIME_SYSTEM    = UTC
MEAN_ELEMENT_THEORY = SGP/SGP4

EPOCH          = 2026-02-07T04:00:01.999584
MEAN_MOTION    = 16.04113333
ECCENTRICITY   = .0000982
INCLINATION    = 97.2823
RA_OF_ASC_NODE = 70.4464
ARG_OF_PERICENTER = 66.5969
MEAN_ANOMALY   = 215.9445

EPHEMERIS_TYPE = 0
CLASSIFICATION_TYPE = U
NORAD_CAT_ID   = 67657
ELEMENT_SET_NO = 999
REV_AT_EPOCH   = 195
BSTAR          = -.20657E-2
MEAN_MOTION_DOT = -.1321192E-1
MEAN_MOTION_DDOT = .57547E-3

CCSDS_OMM_VERS = 2.0
CREATION_DATE  = 
ORIGINATOR     = 

OBJECT_NAME    = STARLINK-36701
OBJECT_ID      = 2026-022L
CENTER_NAME    = EARTH
REF_FRAME      = TEME
TIME_SYSTEM    = UTC
MEAN_ELEMENT_THEORY = SGP/SGP4

EPOCH          = 2026-02-07T04:00:01.999584
MEAN_MOTION    = 16.04276212
ECCENTRICITY   = .0000995
INCLINATION    = 97.2824
RA_OF_ASC_NODE = 70.4474
ARG_OF_PERICENTER = 71.6531
MEAN_ANOMALY   = 212.1491

EPHEMERIS_TYPE = 0
CLASSIFICATION_TYPE = U
NORAD_CAT_ID   = 67658
ELEMENT_SET_NO = 999
REV_AT_EPOCH   = 198
BSTAR          = -.20495E-2
MEAN_MOTION_DOT = -.1323589E-1
MEAN_MOTION_DDOT = .57852E-3

CCSDS_OMM_VERS = 2.0
CREATION_DATE  = 
ORIGINATOR     = 

OBJECT_NAME    = STARLINK-36642
OBJECT_ID      = 2026-022M
CENTER_NAME    = EARTH
REF_FRAME      = TEME
TIME_SYSTEM    = UTC
MEAN_ELEMENT_THEORY = SGP/SGP4

EPOCH          = 2026-02-07T04:00:01.999584
MEAN_MOTION    = 16.04384986
ECCENTRICITY   = .0000975
INCLINATION    = 97.2825
RA_OF_ASC_NODE = 70.4480
ARG_OF_PERICENTER = 67.4615
MEAN_ANOMALY   = 217.3542

EPHEMERIS_TYPE = 0
CLASSIFICATION_TYPE = U
NORAD_CAT_ID   = 67659
ELEMENT_SET_NO = 999
REV_AT_EPOCH   = 198
BSTAR          = -.20226E-2
MEAN_MOTION_DOT = -.1314887E-1
MEAN_MOTION_DDOT = .57224E-3

CCSDS_OMM_VERS = 2.0
CREATION_DATE  = 
ORIGINATOR     = 

OBJECT_NAME    = STARLINK-36673
OBJECT_ID      = 2026-022N
CENTER_NAME    = EARTH
REF_FRAME      = TEME
TIME_SYSTEM    = UTC
MEAN_ELEMENT_THEORY = SGP/SGP4

EPOCH          = 2026-02-07T04:00:01.999584
MEAN_MOTION    = 16.04537457
ECCENTRICITY   = .0000968
INCLINATION    = 97.2821
RA_OF_ASC_NODE = 70.4481
ARG_OF_PERICENTER = 67.3862
MEAN_ANOMALY   = 218.6804

EPHEMERIS_TYPE = 0
CLASSIFICATION_TYPE = U
NORAD_CAT_ID   = 67660
ELEMENT_SET_NO = 999
REV_AT_EPOCH   = 198
BSTAR          = -.19833E-2
MEAN_MOTION_DOT = -.1301304E-1
MEAN_MOTION_DDOT = .56237E-3

CCSDS_OMM_VERS = 2.0
CREATION_DATE  = 
ORIGINATOR     = 

OBJECT_NAME    = STARLINK-36674
OBJECT_ID      = 2026-022P
CENTER_NAME    = EARTH
REF_FRAME      = TEME
TIME_SYSTEM    = UTC
MEAN_ELEMENT_THEORY = SGP/SGP4

EPOCH          = 2026-02-07T04:00:01.999584
MEAN_MOTION    = 16.04656144
ECCENTRICITY   = .000098
INCLINATION    = 97.2822
RA_OF_ASC_NODE = 70.4486
ARG_OF_PERICENTER = 68.9583
MEAN_ANOMALY   = 218.1209

EPHEMERIS_TYPE = 0
CLASSIFICATION_TYPE = U
NORAD_CAT_ID   = 67661
ELEMENT_SET_NO = 999
REV_AT_EPOCH   = 198
BSTAR          = -.19791E-2
MEAN_MOTION_DOT = -.1307723E-1
MEAN_MOTION_DDOT = .56833E-3

CCSDS_OMM_VERS = 2.0
CREATION_DATE  = 
ORIGINATOR     = 

OBJECT_NAME    = STARLINK-36700
OBJECT_ID      = 2026-022Q
CENTER_NAME    = EARTH
REF_FRAME      = TEME
TIME_SYSTEM    = UTC
MEAN_ELEMENT_THEORY = SGP/SGP4

EPOCH          = 2026-02-07T04:00:01.999584
MEAN_MOTION    = 16.04953207
ECCENTRICITY   = .0000929
INCLINATION    = 97.2821
RA_OF_ASC_NODE = 70.4495
ARG_OF_PERICENTER = 69.0868
MEAN_ANOMALY   = 220.3819

EPHEMERIS_TYPE = 0
CLASSIFICATION_TYPE = U
NORAD_CAT_ID   = 67662
ELEMENT_SET_NO = 999
REV_AT_EPOCH   = 198
BSTAR          = -.1933E-2
MEAN_MOTION_DOT = -.1300377E-1
MEAN_MOTION_DDOT = .56444E-3

CCSDS_OMM_VERS = 2.0
CREATION_DATE  = 
ORIGINATOR     = 

OBJECT_NAME    = STARLINK-36675
OBJECT_ID      = 2026-022R
CENTER_NAME    = EARTH
REF_FRAME      = TEME
TIME_SYSTEM    = UTC
MEAN_ELEMENT_THEORY = SGP/SGP4

EPOCH          = 2026-02-07T04:00:01.999584
MEAN_MOTION    = 16.04809860
ECCENTRICITY   = .0000983
INCLINATION    = 97.2820
RA_OF_ASC_NODE = 70.4491
ARG_OF_PERICENTER = 67.4683
MEAN_ANOMALY   = 220.8147

EPHEMERIS_TYPE = 0
CLASSIFICATION_TYPE = U
NORAD_CAT_ID   = 67663
ELEMENT_SET_NO = 999
REV_AT_EPOCH   = 198
BSTAR          = -.19659E-2
MEAN_MOTION_DOT = -.1311017E-1
MEAN_MOTION_DDOT = .57204E-3

CCSDS_OMM_VERS = 2.0
CREATION_DATE  = 
ORIGINATOR     = 

OBJECT_NAME    = STARLINK-36404
OBJECT_ID      = 2026-022S
CENTER_NAME    = EARTH
REF_FRAME      = TEME
TIME_SYSTEM    = UTC
MEAN_ELEMENT_THEORY = SGP/SGP4

EPOCH          = 2026-02-07T04:00:01.999584
MEAN_MOTION    = 16.05096268
ECCENTRICITY   = .0000939
INCLINATION    = 97.2817
RA_OF_ASC_NODE = 70.4496
ARG_OF_PERICENTER = 68.9885
MEAN_ANOMALY   = 221.6844

EPHEMERIS_TYPE = 0
CLASSIFICATION_TYPE = U
NORAD_CAT_ID   = 67664
ELEMENT_SET_NO = 999
REV_AT_EPOCH   = 195
BSTAR          = -.19011E-2
MEAN_MOTION_DOT = -.1290134E-1
MEAN_MOTION_DDOT = .5572E-3

CCSDS_OMM_VERS = 2.0
CREATION_DATE  = 
ORIGINATOR     = 

OBJECT_NAME    = STARLINK-36399
OBJECT_ID      = 2026-022T
CENTER_NAME    = EARTH
REF_FRAME      = TEME
TIME_SYSTEM    = UTC
MEAN_ELEMENT_THEORY = SGP/SGP4

EPOCH          = 2026-02-07T04:00:01.999584
MEAN_MOTION    = 16.05201016
ECCENTRICITY   = .0000964
INCLINATION    = 97.2817
RA_OF_ASC_NODE = 70.4503
ARG_OF_PERICENTER = 65.9401
MEAN_ANOMALY   = 225.6972

EPHEMERIS_TYPE = 0
CLASSIFICATION_TYPE = U
NORAD_CAT_ID   = 67665
ELEMENT_SET_NO = 999
REV_AT_EPOCH   = 195
BSTAR          = -.18816E-2
MEAN_MOTION_DOT = -.1285066E-1
MEAN_MOTION_DDOT = .55386E-3

CCSDS_OMM_VERS = 2.0
CREATION_DATE  = 
ORIGINATOR     = 

OBJECT_NAME    = STARLINK-36365
OBJECT_ID      = 2026-022U
CENTER_NAME    = EARTH
REF_FRAME      = TEME
TIME_SYSTEM    = UTC
MEAN_ELEMENT_THEORY = SGP/SGP4

EPOCH          = 2026-02-07T04:00:01.999584
MEAN_MOTION    = 16.05362468
ECCENTRICITY   = .0000995
INCLINATION    = 97.2818
RA_OF_ASC_NODE = 70.4511
ARG_OF_PERICENTER = 65.4687
MEAN_ANOMALY   = 227.4441

EPHEMERIS_TYPE = 0
CLASSIFICATION_TYPE = U
NORAD_CAT_ID   = 67666
ELEMENT_SET_NO = 999
REV_AT_EPOCH   = 198
BSTAR          = -.1839E-2
MEAN_MOTION_DOT = -.1268525E-1
MEAN_MOTION_DDOT = .54179E-3

CCSDS_OMM_VERS = 2.0
CREATION_DATE  = 
ORIGINATOR     = 

OBJECT_NAME    = STARLINK-36622
OBJECT_ID      = 2026-022V
CENTER_NAME    = EARTH
REF_FRAME      = TEME
TIME_SYSTEM    = UTC
MEAN_ELEMENT_THEORY = SGP/SGP4

EPOCH          = 2026-02-07T04:00:01.999584
MEAN_MOTION    = 16.05538311
ECCENTRICITY   = .0000879
INCLINATION    = 97.2818
RA_OF_ASC_NODE = 70.4516
ARG_OF_PERICENTER = 66.0622
MEAN_ANOMALY   = 228.1679

EPHEMERIS_TYPE = 0
CLASSIFICATION_TYPE = U
NORAD_CAT_ID   = 67667
ELEMENT_SET_NO = 999
REV_AT_EPOCH   = 198
BSTAR          = -.18108E-2
MEAN_MOTION_DOT = -.1262497E-1
MEAN_MOTION_DDOT = .53818E-3

